CCSDS_OEM_VERS = 2.0
CREATION_DATE  = 2025-06-30T19:19:07.115
ORIGINATOR     = NASA/JSC/FOD/TOPO

META_START
OBJECT_NAME          = ISS
OBJECT_ID            = 1998-067-A
CENTER_NAME          = Earth
REF_FRAME            = EME2000
TIME_SYSTEM          = UTC
START_TIME           = 2025-06-30T12:00:00.000
USEABLE_START_TIME   = 2025-06-30T12:00:00.000
USEABLE_STOP_TIME    = 2025-07-15T12:00:00.000
STOP_TIME            = 2025-07-15T12:00:00.000
META_STOP

COMMENT Source: This file was produced by the TOPO office within FOD at JSC.
COMMENT Units are in kg and m^2
COMMENT MASS=454422.00
COMMENT DRAG_AREA=1207.00
COMMENT DRAG_COEFF=0.90
COMMENT SOLAR_RAD_AREA=0.00
COMMENT SOLAR_RAD_COEFF=0.00
COMMENT Orbits start at the ascending node epoch
COMMENT ISS first asc. node: EPOCH = 2025-06-30T13:01:41.077 $ ORBIT = 3723 $ LAN(DEG) = 126.61017
COMMENT ISS last asc. node : EPOCH = 2025-07-15T11:55:29.719 $ ORBIT = 3955 $ LAN(DEG) = 54.28239
COMMENT Begin sequence of events
COMMENT TRAJECTORY EVENT SUMMARY:
COMMENT 
COMMENT |       EVENT        |       TIG        | ORB |   DV    |   HA    |   HP    |
COMMENT |                    |       GMT        |     |   M/S   |   KM    |   KM    |
COMMENT |                    |                  |     |  (F/S)  |  (NM)   |  (NM)   |
COMMENT =============================================================================
COMMENT  90P Undock            182:18:43:00.000             0.0     420.3     410.6
COMMENT                                                    (0.0)   (226.9)   (221.7)
COMMENT 
COMMENT  92P Launch            184:19:32:40.000             0.0     420.7     410.2
COMMENT                                                    (0.0)   (227.1)   (221.5)
COMMENT 
COMMENT  92P Docking           186:21:27:32.000             0.0     420.8     410.1
COMMENT                                                    (0.0)   (227.2)   (221.4)
COMMENT 
COMMENT  Axiom-4 Undock        191:12:00:00.000             0.0     421.3     409.1
COMMENT                                                    (0.0)   (227.5)   (220.9)
COMMENT 
COMMENT =============================================================================
COMMENT End sequence of events
2025-07-03T17:19:00.000 4609.474179903900 -916.979590719180 4899.112569895010 3.72476549833086 6.28181442407826 -2.32145914630569
2025-07-03T17:23:00.000 5324.834060197460 605.688156733298 4169.996305745800 2.20005669661844 6.32957112212649 -3.71737295941156
2025-07-03T17:27:00.000 5652.607548573270 2084.261232283150 3136.491769743340 0.51458347713713 5.91654035451902 -4.84245963001810
2025-07-03T17:31:00.000 5568.784468900060 3411.060790315310 1873.948289927600 -1.20889338538022 5.07249951243242 -5.61425218106145
2025-07-03T17:35:00.000 5079.399020370210 4489.435480773860 474.533312925908 -2.84433347654306 3.85905754474773 -5.97603038172725
2025-07-03T17:39:00.000 4220.165561286130 5240.921233600520 -959.545633904056 -4.27203109277235 2.36522395179757 -5.90139524729870
2025-07-03T17:43:00.000 3053.842175156870 5611.053913595220 -2323.621304647610 -5.38779347458608 0.70068104191860 -5.39639055465897
2025-07-03T17:47:00.000 1665.518567247040 5573.324315164490 -3518.332258310370 -6.11086420385840 -1.01281553345437 -4.49883443370596
2025-07-03T17:51:00.000 156.256556103311 5130.967464987750 -4456.900473897770 -6.38966119759321 -2.65071598872961 -3.27503549551401
2025-07-03T17:55:00.000 -1364.355706181260 4316.522753709110 -5071.358756802340 -6.20503297256854 -4.09483033145010 -1.81440408243320
2025-07-03T17:59:00.000 -2786.119112179720 3189.300555103040 -5317.306904687530 -5.57096590999564 -5.24151666725848 -0.22273077182497
2025-07-03T18:03:00.000 -4006.046802086390 1831.040381754340 -5176.963977112010 -4.53320193280918 -6.00853449566806 1.38522859282225
2025-07-03T18:07:00.000 -4935.640611437520 340.092680576187 -4660.379946565750 -3.16603575319702 -6.34046945285509 2.89362294441849
2025-07-03T18:11:00.000 -5507.178990960220 -1175.506500431590 -3804.769026592270 -1.56739467107379 -6.21253284119659 4.19319660737485
2025-07-03T18:15:00.000 -5678.664273958330 -2605.691107954070 -2672.006524648830 0.14749993275165 -5.63279785363716 5.18896931393839
2025-07-03T18:19:00.000 -5437.045642075550 -3846.298565180040 -1344.331401912520 1.85404514314862 -4.64220382376917 5.80731551093782
2025-07-03T18:23:00.000 -4799.415067266990 -4806.734877987600 81.520714513471 3.42725424218469 -3.31229441570362 6.00192217982297
2025-07-03T18:27:00.000 -3811.932624532460 -5416.770896440110 1501.406144025150 4.75146137541214 -1.74014527786982 5.75781495367214
2025-07-03T18:31:00.000 -2546.497386464160 -5631.825545870420 2811.505696127980 5.72923953910845 -0.04107273697745 5.09268902099250
2025-07-03T18:35:00.000 -1095.420034597510 -5436.306470579320 3916.069130701630 6.28903464912992 1.66026354161529 4.05562193798086
2025-07-03T18:39:00.000 435.473509207814 -4844.692228729330 4734.502157380210 6.39040128728259 3.23952292774931 2.72299264148261
2025-07-03T18:43:00.000 1934.665441913530 -3900.327250951260 5207.236445179190 6.02656456585524 4.58197599782116 1.19246517923229
2025-07-03T18:47:00.000 3293.075418397530 -2672.122937729560 5299.958525565480 5.22441847497853 5.59050826750634 -0.42444958443216
2025-07-03T18:51:00.000 4411.909028765880 -1249.505675367990 5005.990106546440 4.04222732693914 6.19223571446257 -2.01031155135276
2025-07-03T18:55:00.000 5209.731997329190 264.021165987005 4346.746713682140 2.56560388957963 6.34344487089394 -3.44980193524888
2025-07-03T18:59:00.000 5628.377309928770 1758.320076300720 3370.238258613880 0.90167770758433 6.03293253073155 -4.63798034919041
2025-07-03T19:03:00.000 5637.224188395100 3124.588990158110 2147.644323446270 -0.82847965030745 5.28300972794870 -5.48788000760119
2025-07-03T19:07:00.000 5235.532621058450 4263.303667416280 768.193931469649 -2.49845538313455 4.14828652523301 -5.93705078785833
2025-07-03T19:11:00.000 4452.597752297430 5091.576728564240 -667.364587975147 -3.98598539949456 2.71194137281632 -5.95261190036864
2025-07-03T19:15:00.000 3345.609411891900 5549.305527886620 -2054.231558051230 -5.18238368760236 1.07944425410904 -5.53390396089874
2025-07-03T19:19:00.000 1995.362833587670 5603.569707551830 -3291.337259447190 -6.00086728830502 -0.62964513464345 -4.71241860925757
2025-07-03T19:23:00.000 500.199923345535 5250.913445185570 -4288.771207124460 -6.38284184943395 -2.29091324919040 -3.54898582570425
2025-07-03T19:27:00.000 -1031.261083525930 4517.395449638940 -4974.261341817800 -6.30168200996419 -3.78431076171646 -2.12878591770870
2025-07-03T19:31:00.000 -2488.001118242560 3456.509639632110 -5298.260529137390 -5.76402762835391 -5.00256402022593 -0.55483813717892
2025-07-03T19:32:40.000 -3047.466226049670 2935.463703136810 -5320.048379380340 -5.41347193424377 -5.40736791417968 0.11954676166037
2025-07-03T19:36:40.000 -4220.578938317950 1547.069040585100 -5098.439893464630 -4.30290042943500 -6.09227490316427 1.71606999284418
2025-07-03T19:40:40.000 -5087.760926929950 46.555015764550 -4506.237087880110 -2.87936577433597 -6.33593929326728 3.18909774779079
2025-07-03T19:44:40.000 -5585.758984909700 -1457.315654110120 -3586.140619404450 -1.24492432342148 -6.11987649518762 4.43180546129474
2025-07-03T19:48:40.000 -5677.869609668920 -2855.270629990130 -2404.740584930090 0.48244404033153 -5.45847388213238 5.35315416320052
2025-07-03T19:52:40.000 -5356.814662369540 -4045.435214128310 -1047.873986332720 2.17699966633177 -4.39872457037383 5.88486225528877
2025-07-03T19:56:40.000 -4645.502293187360 -4940.862385168560 385.538915616717 3.71452108990160 -3.01734437861176 5.98696214059257
2025-07-03T20:00:40.000 -3595.511901739870 -5476.065139828300 1790.760365519290 4.98187017056622 -1.41533406382795 5.65131983883170
2025-07-03T20:04:40.000 -2283.345102186690 -5611.959309907390 3065.036098515090 5.88587462627391 0.28972168056871 4.90250135829224
2025-07-03T20:08:40.000 -804.727688111738 -5338.761223000780 4115.256527119770 6.36050741140834 1.97283050565618 3.79575463864434
2025-07-03T20:12:40.000 732.520920457925 -4676.615641387470 4864.823654499320 6.37157453684694 3.51112531171925 2.41250714264738
2025-07-03T20:16:40.000 2216.439483833220 -3673.992020653270 5259.210505039500 5.91890014524314 4.79291374006552 0.85404743762517
2025-07-03T20:20:40.000 3539.073250317830 -2404.018731057680 5269.814319524240 5.03576222085744 5.72553276078221 -0.76617294736406
2025-07-03T20:24:40.000 4604.227255063460 -959.140912618015 4895.931426137750 3.78627780198119 6.24159824634627 -2.33048222149047
2025-07-03T20:28:40.000 5334.357612772640 555.532032333932 4164.783452517640 2.26086971527832 6.30355966416553 -3.72517853550118
2025-07-03T20:32:40.000 5676.195279335360 2029.761204064620 3129.612810259480 0.57026333593687 5.90657179107232 -4.84844325108043
2025-07-03T20:36:40.000 5604.712212410570 3356.179685226410 1865.900060819950 -1.16236785935779 5.07931522920457 -5.61795465624388
2025-07-03T20:40:40.000 5125.046463775580 4438.167099297400 465.899793981209 -2.81035362149076 3.88216445278360 -5.97717214098439
2025-07-03T20:44:40.000 4272.206943747940 5196.996644832140 -968.135852990414 -4.25305163763942 2.40293783847618 -5.89989948764436
2025-07-03T20:48:40.000 3108.489811393750 5577.663464238970 -2331.545819946460 -5.38517883657016 0.75020772791444 -5.39236482047928
2025-07-03T20:52:40.000 1718.804568620600 5552.885740909550 -3525.012721308460 -6.12475366423147 -0.95506361086833 -4.49255869924618
2025-07-03T20:56:40.000 204.318908341665 5124.962718535870 -4461.849366891650 -6.41903476375521 -2.58891652779875 -3.26696944622145
2025-07-03T21:00:40.000 -1324.997580761600 4325.389502859450 -5074.215633511260 -6.24775344542818 -4.03345486168334 -1.80514523910916
2025-07-03T21:04:40.000 -2758.314777846770 3212.398802840700 -5317.865555402020 -5.62394544629335 -5.18501833860624 -0.21295160348870
